STARLINK-35802          
1 66289U 25247AA  25334.16671295  .00025502  00000+0  64631-3 0  9991
2 66289  53.1585 296.3226 0001631  78.2392 130.8897 15.39577217  5549
STARLINK-35799          
1 66290U 25247AB  25334.16671295  .00028982  00000+0  73266-3 0  9992
2 66290  53.1586 296.3190 0001816  83.8413 127.1289 15.39583060  5911
STARLINK-35800          
1 66291U 25247AC  25334.16671295  .00033449  00000+0  84358-3 0  9991
2 66291  53.1592 296.2661 0001566  89.3278 147.3888 15.39581744  5919
STARLINK-35798          
1 66292U 25247AD  25334.16671295  .00031959  00000+0  80684-3 0  9994
2 66292  53.1591 296.2703 0001554  81.5122 153.3621 15.39573458  5606
LVM3 R/B                
1 66310U 25249A   25334.06923045  .00047337  27630-6  13035-2 0  9996
2 66310  21.3469 144.7332 6669483 206.7231  92.3964  3.14154353   888
CMS-03 (GSAT-7R)        
1 66311U 25249B   25334.09598612 -.00000236  00000+0  00000+0 0  9996
2 66311   0.1732 271.8860 0004169 196.1147  89.2891  1.00269478   355
YAOGAN-46               
1 66313U 25250A   25323.71050301 -.00000009  00000+0  00000+0 0  9993
2 66313  20.0323 106.9378 0049242 131.7872 228.6447  5.35115933   968
SENTINEL-1D             
1 66315U 25251A   25329.92851653  .00000204  00000+0  52376-4 0  9998
2 66315  98.1939 335.1735 0001477 179.8573 180.2628 14.59751375  3083
QPS-SAR-14 (YACHIHOKO-I)
1 66316U 25252A   25333.79771872  .00005199  00000+0  45372-3 0  9999
2 66316  42.0029 146.3290 0007088  59.2401 300.9120 14.97485851  3594
ELECTRON R/B            
1 66317U 25252B   25333.88053485  .01669799  79110-5  19143-2 0  9996
2 66317  41.9889 130.1303 0124669  46.1701 314.9386 15.94243293  3786
ELECTRON KICK STAGE R/B 
1 66318U 25252C   25333.88236074  .07609678  78949-5  14467-2 0  9993
2 66318  41.9678 128.3366 0048366 209.2072 150.6092 16.27204594  3803
STARLINK-35442          
1 66319U 25253A   25334.50004630 -.00572902  00000+0 -14625-1 0  9992
2 66319  42.9999  56.4077 0000857 274.5981  17.4965 15.40991700  5052
